OBJECT_NAME,OBJECT_ID,EPOCH,MEAN_MOTION,ECCENTRICITY,INCLINATION,RA_OF_ASC_NODE,ARG_OF_PERICENTER,MEAN_ANOMALY,EPHEMERIS_TYPE,CLASSIFICATION_TYPE,NORAD_CAT_ID,ELEMENT_SET_NO,REV_AT_EPOCH,BSTAR,MEAN_MOTION_DOT,MEAN_MOTION_DDOT
STARLINK-30243,2023-122S,2026-06-04T13:47:47.474592,15.27580331,.00025206,43.0044,321.9271,256.2620,103.7951,0,U,57648,999,15549,.55647259E-4,.1269E-4,0
STARLINK-30299,2023-122U,2026-06-04T18:09:55.022976,15.27581842,.00005054,43.0003,320.7156,246.1728,113.9071,0,U,57650,999,15552,.72037698E-4,.1721E-4,0
STARLINK-30294,2023-122V,2026-06-01T19:08:54.242592,15.27550417,.00022103,43.0074,326.1918,261.1347,98.9254,0,U,57651,999,15520,.20214692E-3,.5299E-4,0
STARLINK-30276,2023-122W,2026-06-02T19:20:00.924864,15.27578384,.00013654,43.0058,331.8691,282.9799,77.0900,0,U,57652,999,15522,-.704919E-6,-.282E-5,0
STARLINK-30289,2023-122X,2026-06-01T22:00:46.234656,15.27572449,.00017469,43.0073,326.1736,290.8049,69.2615,0,U,57653,999,15520,.63267171E-4,.1479E-4,0
GAOFEN-12 04,2023-123A,2026-06-04T23:16:10.277760,14.80204723,.000177,97.9129,74.1626,89.0219,271.1196,0,U,57654,999,15082,.16978732E-3,.1239E-4,0
STARLINK-30267,2023-124A,2026-06-04T05:24:32.926176,15.30191162,.00013235,53.1584,165.0693,55.1397,304.9728,0,U,57663,999,15681,.22928521E-4,.32E-5,0
STARLINK-30298,2023-124C,2026-06-04T18:00:01.095552,15.30200920,.00011334,53.1596,162.6810,62.1929,297.9186,0,U,57665,999,15689,.51773488E-4,.1175E-4,0
STARLINK-30301,2023-124D,2026-06-03T11:13:54.996096,15.33199794,.0001831,53.1593,229.6262,21.9832,338.1248,0,U,57666,999,15581,.95774E-3,.3091E-3,0
STARLINK-30275,2023-124E,2026-06-04T05:54:53.777664,15.30207423,.00011341,53.1577,165.0104,56.6589,303.4520,0,U,57667,999,15681,.62975433E-4,.1507E-4,0
STARLINK-30278,2023-124F,2026-06-04T05:47:19.861440,15.30190816,.00013924,53.1582,165.0101,49.8880,310.2242,0,U,57668,999,15681,.15438974E-4,.98E-6,0
STARLINK-30271,2023-124G,2026-06-04T05:10:08.934816,15.31702138,.0001346,53.1572,164.7302,123.2018,236.9112,0,U,57669,999,15681,.4820572E-4,.1131E-4,0
STARLINK-30322,2023-124H,2026-06-04T05:53:23.063712,15.30197671,.00011126,53.1590,165.0170,99.0646,261.0481,0,U,57670,999,15681,.11828079E-4,-.9E-7,0
STARLINK-30296,2023-124J,2026-06-04T11:45:19.273824,15.30196127,.00012526,53.1574,163.8349,91.9032,268.2112,0,U,57671,999,15685,.23860257E-4,.347E-5,0
STARLINK-30274,2023-124K,2026-06-04T05:06:19.691424,15.30190202,.00012357,53.1587,165.0581,50.0870,310.0239,0,U,57672,999,15681,.24522965E-4,.367E-5,0
STARLINK-30316,2023-124L,2026-06-04T05:36:41.607360,15.30194738,.00011002,53.1590,165.0851,74.7460,285.3663,0,U,57673,999,15681,.19819642E-4,.228E-5,0
STARLINK-30313,2023-124P,2026-06-04T05:10:53.266656,15.30189905,.00014509,53.1591,165.0700,55.0426,305.0710,0,U,57676,999,15681,.23662048E-4,.341E-5,0
STARLINK-30303,2023-124Q,2026-06-04T05:42:37.742976,15.30203008,.00010986,53.1589,164.4642,67.1464,292.9652,0,U,57677,999,15682,.69487E-7,-.357E-5,0
STARLINK-30320,2023-124R,2026-06-04T05:28:23.119968,15.34390211,.00014617,53.1602,151.6524,65.2325,294.8830,0,U,57678,999,15700,.13502426E-3,.4187E-4,0
STARLINK-30321,2023-124S,2026-06-04T09:05:56.263488,15.30178791,.00012393,53.1588,163.9319,130.5529,229.5580,0,U,57679,999,15684,.9671308E-5,-.73E-6,0
STARLINK-30283,2023-124T,2026-06-04T05:20:01.082400,15.30177867,.0000853,53.1593,165.0516,66.6010,293.5080,0,U,57680,999,15681,-.40586494E-4,-.156E-4,0
STARLINK-30273,2023-124U,2026-06-04T05:16:52.435776,15.31708423,.00016621,53.1595,164.7621,66.5591,293.5585,0,U,57681,999,15681,.50252202E-4,.1195E-4,0
STARLINK-30297,2023-124V,2026-06-04T05:15:26.739936,15.30189369,.00014088,53.1606,165.0956,92.7775,267.3387,0,U,57682,999,15681,-.10271917E-4,-.663E-5,0
STARLINK-30295,2023-124W,2026-06-04T05:33:39.474432,15.30196599,.00009904,53.1590,165.0883,74.4213,285.6897,0,U,57683,999,15681,.19621601E-4,.222E-5,0
CAPELLA-11 (ACADIA-1),2023-126A,2026-06-03T13:33:02.377440,14.82859659,.00029282,53.0091,243.9453,51.1138,309.0101,0,U,57693,999,15010,.62548864E-3,.4889E-4,0
JILIN-1 KUANFU 02A,2023-127A,2026-06-04T21:07:42.421440,15.10505672,.00118937,97.5555,249.8580,27.6311,332.5548,0,U,57696,999,15377,.35938202E-3,.5867E-4,0
STARLINK-30288,2023-129A,2026-06-02T08:00:04.999680,15.27586172,.00014916,43.0035,0.2559,263.5279,83.4822,0,U,57698,999,576,-.47875729E-3,-.13415E-3,0
STARLINK-30347,2023-129B,2026-06-02T19:37:36.340608,15.27587389,.00006387,43.0016,345.9091,279.3225,80.7555,0,U,57699,999,15383,.67364826E-4,.1593E-4,0
STARLINK-30332,2023-129C,2026-06-04T21:51:08.291232,15.27577109,.00016934,43.0019,352.8313,289.6838,70.3831,0,U,57700,999,15379,.31663617E-3,.846E-4,0
STARLINK-30345,2023-129D,2026-05-31T23:48:33.576192,15.27624975,.00011569,43.0036,7.3747,267.5837,92.4882,0,U,57701,999,15328,-.48323564E-3,-.13554E-3,0
STARLINK-30333,2023-129E,2026-06-02T22:25:29.028864,15.27578243,.00035063,43.0061,356.1489,219.2545,140.8052,0,U,57702,999,15372,-.13141766E-4,-.625E-5,0
STARLINK-30336,2023-129F,2026-06-02T21:28:24.782592,15.27528215,.0001122,43.0051,356.7134,269.7832,90.2891,0,U,57703,999,15357,-.21042E-3,-.6038E-4,0
STARLINK-30346,2023-129G,2026-05-31T23:31:54.194304,15.27579351,.00022146,43.0019,7.2799,234.1091,125.9556,0,U,57704,999,15328,.10695335E-3,.2682E-4,0
STARLINK-30327,2023-129K,2026-06-02T18:34:37.022304,15.36484074,.0028435,42.9981,321.7874,281.3355,78.4305,0,U,57707,999,15397,.28026693E-2,.104457E-2,0
STARLINK-30315,2023-129L,2026-05-31T23:52:15.424608,15.27569828,.00025076,43.0067,7.3867,256.5450,103.5122,0,U,57708,999,15342,.86037019E-4,.2105E-4,0
STARLINK-30287,2023-129M,2026-05-31T23:37:27.378624,15.27578255,.00025111,43.0075,7.3130,262.6018,97.4548,0,U,57709,999,15342,.74182588E-4,.1779E-4,0
STARLINK-30335,2023-129N,2026-05-31T23:42:59.624640,15.27585462,.00010139,43.0052,7.3386,262.5799,97.4938,0,U,57710,999,15342,.62144969E-4,.1449E-4,0
STARLINK-30318,2023-129P,2026-05-31T15:35:32.016768,15.27615589,.00015442,43.0047,9.0835,262.1989,97.8688,0,U,57711,999,15323,-.10972887E-3,-.3284E-4,0
STARLINK-30348,2023-129Q,2026-06-03T19:37:38.891136,15.27618681,.00015807,43.0021,351.5963,291.2647,68.8036,0,U,57712,999,15385,.77541723E-3,.21162E-3,0
STARLINK-30349,2023-129R,2026-06-01T22:18:12.959424,15.27574561,.00014043,43.0043,2.3506,257.6415,102.4280,0,U,57713,999,15342,.18232105E-4,.239E-5,0
STARLINK-30341,2023-129S,2026-06-01T23:22:01.822080,15.27592390,.00013746,43.0059,5.2293,221.3272,138.7476,0,U,57714,999,15353,-.96157577E-4,-.2908E-4,0
STARLINK-30300,2023-129T,2026-06-01T22:01:33.342528,15.27574839,.00016095,43.0021,2.2748,261.2609,98.8060,0,U,57715,999,15356,-.652793E-5,-.442E-5,0
STARLINK-30281,2023-129U,2026-06-01T20:58:53.678496,15.27541553,.00007552,42.9994,2.7969,70.0965,289.9968,0,U,57716,999,15341,.52068978E-3,.14077E-3,0
STARLINK-30325,2023-129V,2026-06-04T19:15:32.158656,15.27640469,.00023081,43.0025,346.0808,260.9241,99.1350,0,U,57717,999,15400,.79319002E-3,.2167E-3,0
STARLINK-30338,2023-129W,2026-06-01T20:53:17.824416,15.27577790,.00017568,43.0053,2.7698,271.0139,89.0511,0,U,57718,999,15355,.78158671E-4,.1889E-4,0
STARLINK-30334,2023-129X,2026-05-31T22:49:33.932352,15.27572509,.00009043,42.9996,7.9093,270.6417,89.4331,0,U,57719,999,15326,.42579301E-4,.91E-5,0
YAOGAN-39 01A,2023-130A,2026-06-04T08:33:05.819040,15.23126503,.00021319,35.0016,209.4322,6.3187,353.7554,0,U,57727,999,15375,.40146634E-3,.9683E-4,0
YAOGAN-39 01B,2023-130B,2026-06-04T16:20:15.226656,15.16167241,.00094592,34.9932,229.9759,326.1883,33.8226,0,U,57728,999,15358,.29176131E-3,.5736E-4,0
YAOGAN-39 01C,2023-130E,2026-06-04T16:14:00.933216,15.16141809,.00100455,34.9922,229.9157,208.9715,151.0441,0,U,57731,999,15356,.33000237E-3,.649E-4,0
STARLINK-30375,2023-131A,2026-06-01T01:48:43.200864,15.27564253,.00025958,43.0084,46.6817,257.8505,102.2056,0,U,57732,999,15285,.86692166E-4,.2123E-4,0
STARLINK-30310,2023-131B,2026-06-04T22:00:05.000256,15.27582671,.00018802,43.0032,47.3964,265.5409,250.6471,0,U,57733,999,590,-.36866029E-3,-.10394E-3,0
STARLINK-30365,2023-131C,2026-06-01T04:15:44.674560,15.27573556,.00006047,43.0018,61.0311,257.4035,102.6749,0,U,57734,999,15268,.18842611E-4,.257E-5,0
STARLINK-30371,2023-131D,2026-06-04T14:47:13.180128,15.26715677,.00022344,43.0065,48.9508,305.0321,55.0320,0,U,57735,999,15312,-.15623205E-3,-.4445E-4,0
STARLINK-30352,2023-131E,2026-06-04T02:17:24.981792,15.26750992,.00010684,43.0057,51.9236,265.9483,94.1246,0,U,57736,999,15304,.38467963E-4,.773E-5,0
STARLINK-30344,2023-131F,2026-05-31T22:17:31.869312,15.06112167,.0001137,43.0029,77.1178,193.7802,166.3011,0,U,57737,999,15247,.38003514E-3,.5443E-4,0
STARLINK-30351,2023-131G,2026-06-01T02:06:26.366688,15.27566007,.00024819,43.0037,61.2500,245.3791,114.6802,0,U,57738,999,15267,.16448564E-3,.4265E-4,0
STARLINK-30242,2023-131H,2026-06-01T01:34:50.478528,15.27603349,.00009547,43.0080,32.7859,294.7050,65.3702,0,U,57739,999,15300,-.30182822E-3,-.8564E-4,0
STARLINK-30331,2023-131J,2026-06-02T19:35:12.860448,15.27592776,.00013047,43.0050,338.6524,271.0429,89.0273,0,U,57740,999,15379,.75896746E-4,.1828E-4,0
STARLINK-30364,2023-131K,2026-06-01T03:36:53.319168,15.27580512,.00010578,43.0030,60.8641,270.5028,89.5702,0,U,57741,999,15268,.32235966E-4,.625E-5,0
STARLINK-30308,2023-131L,2026-06-04T04:17:41.614368,15.27594390,.00024672,43.0028,44.0347,282.7549,77.3027,0,U,57742,999,15315,.13761224E-3,.3528E-4,0
STARLINK-30361,2023-131M,2026-06-01T03:46:08.352768,15.27581386,.00013383,43.0002,60.9103,274.8821,85.1877,0,U,57743,999,15267,.27265718E-4,.488E-5,0
STARLINK-30363,2023-131N,2026-06-01T00:51:34.903296,15.27563838,.00013019,43.0071,47.2483,255.5150,104.5558,0,U,57744,999,15283,.48179937E-4,.1063E-4,0
STARLINK-30362,2023-131P,2026-06-01T03:14:53.949696,15.27588167,.00012787,43.0049,61.5992,260.2814,99.7894,0,U,57745,999,15267,.3118121E-5,-.176E-5,0
STARLINK-30350,2023-131Q,2026-06-01T22:57:04.833216,15.27575284,.00011276,43.0019,53.1688,234.7917,125.2829,0,U,57746,999,15284,.5197709E-5,-.119E-5,0
